NORAD_CAT_ID,OBJECT_NAME,OBJECT_TYPE,EPOCH,MEAN_MOTION,ECCENTRICITY,INCLINATION,RA_OF_ASC_NODE,ARG_OF_PERICENTER,MEAN_ANOMALY,BSTAR,MEAN_MOTION_DOT,MEAN_MOTION_DDOT,TLE_LINE0,TLE_LINE1,TLE_LINE2,SEMIMAJOR_AXIS,PERIOD,APOGEE,PERIGEE,DECAYED
56808.0,STARLINK-6042,PAYLOAD,2024-06-21 20:30:45,15.19259094,0.0002792,69.9992,68.3289,270.0214,90.0635,1.5926e-06,-8.1e-07,0.0,0 STARLINK-6042,1 56808U 23078AT  24173.85469101 -.00000081  00000-0  15926-5 0  9996,2 56808  69.9992  68.3289 0002792 270.0214  90.0635 15.19259094 60278,6886.216,94.783,510.003,506.158,0.0
56808.0,STARLINK-6042,PAYLOAD,2024-06-22 02:49:59,15.19259831,0.0002794,69.9992,67.643,270.117,89.968,6.5125e-06,2.3e-07,0.0,0 STARLINK-6042,1 56808U 23078AT  24174.11805291  .00000023  00000-0  65125-5 0  9991,2 56808  69.9992  67.6430 0002794 270.1170  89.9680 15.19259831 60571,6886.213,94.783,510.002,506.154,0.0
56808.0,STARLINK-6042,PAYLOAD,2024-06-22 20:12:54,15.19259209,0.0002827,69.9992,65.757,269.792,90.2925,4.1047e-06,-2.8e-07,0.0,0 STARLINK-6042,1 56808U 23078AT  24174.84230006 -.00000028  00000-0  41047-5 0  9990,2 56808  69.9992  65.7570 0002827 269.7920  90.2925 15.19259209 60429,6886.215,94.783,510.027,506.133,0.0
56808.0,STARLINK-6042,PAYLOAD,2024-06-23 02:32:09,15.19259484,0.0002842,69.9992,65.0711,269.8902,90.1942,5.7345e-06,7e-08,0.0,0 STARLINK-6042,1 56808U 23078AT  24175.10566243  .00000007  00000-0  57345-5 0  9999,2 56808  69.9992  65.0711 0002842 269.8902  90.1942 15.19259484 60464,6886.214,94.783,510.036,506.122,0.0
56808.0,STARLINK-6042,PAYLOAD,2024-06-23 19:55:03,15.19261083,0.0002961,69.999,63.1846,269.1357,90.9473,1.3308e-05,1.67e-06,0.0,0 STARLINK-6042,1 56808U 23078AT  24175.82990727  .00000167  00000-0  13308-4 0  9993,2 56808  69.9990  63.1846 0002961 269.1357  90.9473 15.19261083 60835,6886.21,94.783,510.114,506.036,0.0
56808.0,STARLINK-6042,PAYLOAD,2024-06-24 14:52:47,15.1925929,0.0002957,69.9992,61.1268,269.3842,90.6989,3.2535e-06,-4.6e-07,0.0,0 STARLINK-6042,1 56808U 23078AT  24176.61999568 -.00000046  00000-0  32535-5 0  9994,2 56808  69.9992  61.1268 0002957 269.3842  90.6989 15.19259290 60699,6886.215,94.783,510.116,506.044,0.0
56808.0,STARLINK-6042,PAYLOAD,2024-06-24 19:37:13,15.19259627,0.0002989,69.9992,60.6121,268.2382,91.8446,9.4422e-06,8.5e-07,0.0,0 STARLINK-6042,1 56808U 23078AT  24176.81751677  .00000085  00000-0  94422-5 0  9998,2 56808  69.9992  60.6121 0002989 268.2382  91.8446 15.19259627 60722,6886.214,94.783,510.137,506.021,0.0
56808.0,STARLINK-6042,PAYLOAD,2024-06-25 01:56:27,15.19260548,0.000298,69.9993,59.9264,267.9395,92.1434,1.4501e-05,1.92e-06,0.0,0 STARLINK-6042,1 56808U 23078AT  24177.08087833  .00000192  00000-0  14501-4 0  9992,2 56808  69.9993  59.9264 0002980 267.9395  92.1434 15.19260548 61022,6886.211,94.783,510.128,506.024,0.0
56808.0,STARLINK-6042,PAYLOAD,2024-06-25 19:19:23,15.1925818,0.0002959,69.9994,58.0403,265.1852,94.898,-1.6863e-05,-4.71e-06,0.0,0 STARLINK-6042,1 56808U 23078AT  24177.80512785 -.00000471  00000-0 -16863-4 0  9996,2 56808  69.9994  58.0403 0002959 265.1852  94.8980 15.19258180 60878,6886.218,94.783,510.121,506.046,0.0
56808.0,STARLINK-6042,PAYLOAD,2024-06-26 01:38:37,15.19258397,0.0002974,69.9994,57.3544,265.3028,94.7802,-1.4555e-05,-4.22e-06,0.0,0 STARLINK-6042,1 56808U 23078AT  24178.06849027 -.00000422  00000-0 -14555-4 0  9999,2 56808  69.9994  57.3544 0002974 265.3028  94.7802 15.19258397 60917,6886.218,94.783,510.131,506.035,0.0
56808.0,STARLINK-6042,PAYLOAD,2024-06-27 01:20:46,15.1926066,0.0003027,69.9995,54.7829,261.3216,98.7611,1.1017e-05,1.18e-06,0.0,0 STARLINK-6042,1 56808U 23078AT  24179.05609660  .00000118  00000-0  11017-4 0  9996,2 56808  69.9995  54.7829 0003027 261.3216  98.7611 15.19260660 61324,6886.211,94.783,510.16,505.991,0.0
56808.0,STARLINK-6042,PAYLOAD,2024-06-27 20:18:30,15.19258125,0.0003235,69.999,52.7229,266.1776,93.9024,4.332e-06,-2.3e-07,0.0,0 STARLINK-6042,1 56808U 23078AT  24179.84618611 -.00000023  00000-0  43320-5 0  9998,2 56808  69.9990  52.7229 0003235 266.1776  93.9024 15.19258125 61188,6886.218,94.783,510.311,505.856,0.0
56808.0,STARLINK-6042,PAYLOAD,2024-06-28 08:56:59,15.19260967,0.000325,69.9991,51.3509,266.0634,94.0164,1.8112e-05,2.68e-06,0.0,0 STARLINK-6042,1 56808U 23078AT  24180.37290854  .00000268  00000-0  18112-4 0  9993,2 56808  69.9991  51.3509 0003250 266.0634  94.0164 15.19260967 61526,6886.21,94.783,510.313,505.837,0.0
56808.0,STARLINK-6042,PAYLOAD,2024-06-28 20:00:39,15.19264123,0.0003288,69.999,50.1515,267.214,92.8654,2.3668e-05,3.86e-06,0.0,0 STARLINK-6042,1 56808U 23078AT  24180.83378969  .00000386  00000-0  23668-4 0  9991,2 56808  69.9990  50.1515 0003288 267.2140  92.8654 15.19264123 61332,6886.2,94.783,510.33,505.801,0.0
56808.0,STARLINK-6042,PAYLOAD,2024-06-29 00:45:04,15.19268385,0.0003236,69.9989,49.6367,266.8141,93.2658,4.5998e-05,8.58e-06,0.0,0 STARLINK-6042,1 56808U 23078AT  24181.03130702  .00000858  00000-0  45998-4 0  9999,2 56808  69.9989  49.6367 0003236 266.8141  93.2658 15.19268385 61622,6886.187,94.782,510.281,505.824,0.0
56808.0,STARLINK-6042,PAYLOAD,2024-06-29 08:39:08,15.19261888,0.0003188,69.9987,48.779,269.2134,90.867,3.714e-06,-3.6e-07,0.0,0 STARLINK-6042,1 56808U 23078AT  24181.36051546 -.00000036  00000-0  37140-5 0  9993,2 56808  69.9987  48.7790 0003188 269.2134  90.8670 15.19261888 61678,6886.207,94.783,510.267,505.877,0.0
56808.0,STARLINK-6042,PAYLOAD,2024-06-29 14:58:23,15.19259202,0.0002886,69.9996,48.093,269.2469,90.837,1.71e-06,-7.8e-07,0.0,0 STARLINK-6042,1 56808U 23078AT  24181.62388049 -.00000078  00000-0  17100-5 0  9993,2 56808  69.9996  48.0930 0002886 269.2469  90.8370 15.19259202 61452,6886.215,94.783,510.068,506.093,0.0
56808.0,STARLINK-6042,PAYLOAD,2024-06-29 19:42:49,15.19252868,0.0003269,69.999,47.5793,268.5815,91.4981,-2.8796e-05,-7.23e-06,0.0,0 STARLINK-6042,1 56808U 23078AT  24181.82140739 -.00000723  00000-0 -28796-4 0  9997,2 56808  69.9990  47.5793 0003269 268.5815  91.4981 15.19252868 61748,6886.234,94.783,510.35,505.848,0.0
56808.0,STARLINK-6042,PAYLOAD,2024-06-29 22:52:26,15.19253751,0.0003077,69.9998,47.2382,266.833,93.2488,-3.1046e-05,-7.7e-06,0.0,0 STARLINK-6042,1 56808U 23078AT  24181.95308884 -.00000770  00000-0 -31046-4 0  9992,2 56808  69.9998  47.2382 0003077 266.8330  93.2488 15.19253751 61505,6886.232,94.783,510.216,505.978,0.0
56808.0,STARLINK-6042,PAYLOAD,2024-06-30 14:40:32,15.19259705,0.0003385,69.9988,45.5211,267.7791,92.2991,-2.5793e-05,-6.6e-06,0.0,0 STARLINK-6042,1 56808U 23078AT  24182.61149153 -.00000660  00000-0 -25793-4 0  9998,2 56808  69.9988  45.5211 0003385 267.7791  92.2991 15.19259705 61603,6886.214,94.783,510.41,505.748,0.0
56808.0,STARLINK-6042,PAYLOAD,2024-06-30 20:59:47,15.19263153,0.0003367,69.9989,44.8357,267.9787,92.0997,-3.0716e-06,-1.79e-06,0.0,0 STARLINK-6042,1 56808U 23078AT  24182.87485066 -.00000179  00000-0 -30716-5 0  9999,2 56808  69.9989  44.8357 0003367 267.9787  92.0997 15.19263153 61903,6886.203,94.783,510.387,505.75,0.0
56808.0,STARLINK-6042,PAYLOAD,2024-06-30 22:34:35,15.19264939,0.0003325,69.9988,44.6643,265.9283,94.1507,-2.0817e-05,-5.55e-06,0.0,0 STARLINK-6042,1 56808U 23078AT  24182.94069070 -.00000555  00000-0 -20817-4 0  9998,2 56808  69.9988  44.6643 0003325 265.9283  94.1507 15.19264939 61656,6886.198,94.783,510.353,505.773,0.0
56808.0,STARLINK-6042,PAYLOAD,2024-07-01 08:03:27,15.19277246,0.0003414,69.999,43.6355,269.8634,90.2145,-0.00014295,-3.136e-05,0.0,0 STARLINK-6042,1 56808U 23078AT  24183.33573141 -.00003136  00000-0 -14295-3 0  9991,2 56808  69.9990  43.6355 0003414 269.8634  90.2145 15.19277246 61717,6886.161,94.782,510.377,505.675,0.0
56808.0,STARLINK-6042,PAYLOAD,2024-07-01 22:16:45,15.19257596,0.0003296,69.999,42.0923,268.3744,91.7049,4.1638e-05,7.66e-06,0.0,0 STARLINK-6042,1 56808U 23078AT  24183.92830180  .00000766  00000-0  41638-4 0  9991,2 56808  69.9990  42.0923 0003296 268.3744  91.7049 15.19257596 61800,6886.22,94.783,510.355,505.815,0.0
56808.0,STARLINK-6042,PAYLOAD,2024-07-01 23:51:33,15.19258716,0.0003288,69.999,41.9208,268.411,91.6683,4.7239e-05,8.84e-06,0.0,0 STARLINK-6042,1 56808U 23078AT  24183.99414153  .00000884  00000-0  47239-4 0  9990,2 56808  69.9990  41.9208 0003288 268.4110  91.6683 15.19258716 62071,6886.217,94.783,510.346,505.817,0.0
56808.0,STARLINK-6042,PAYLOAD,2024-07-02 14:04:51,15.19259747,0.000323,69.999,40.3778,268.3377,91.7423,-2.3322e-06,-1.64e-06,0.0,0 STARLINK-6042,1 56808U 23078AT  24184.58670921 -.00000164  00000-0 -23322-5 0  9994,2 56808  69.9990  40.3778 0003230 268.3377  91.7423 15.19259747 61906,6886.214,94.783,510.303,505.854,0.0
56808.0,STARLINK-6042,PAYLOAD,2024-07-02 21:58:54,15.19261338,0.0003222,69.9991,39.5203,267.7891,92.2909,-8.7177e-07,-1.33e-06,0.0,0 STARLINK-6042,1 56808U 23078AT  24184.91591103 -.00000133  00000-0 -87177-6 0  9990,2 56808  69.9991  39.5203 0003222 267.7891  92.2909 15.19261338 61954,6886.209,94.783,510.292,505.855,0.0
56808.0,STARLINK-6042,PAYLOAD,2024-07-03 07:27:46,15.19260534,0.0003202,69.9992,38.4914,268.2034,91.8769,-1.5824e-06,-1.48e-06,0.0,0 STARLINK-6042,1 56808U 23078AT  24185.31095484 -.00000148  00000-0 -15824-5 0  9991,2 56808  69.9992  38.4914 0003202 268.2034  91.8769 15.19260534 62277,6886.211,94.783,510.281,505.871,0.0
56808.0,STARLINK-6042,PAYLOAD,2024-07-03 21:41:04,15.19261491,0.0003215,69.9991,36.9479,268.0378,92.0424,-1.6659e-06,-1.5e-06,0.0,0 STARLINK-6042,1 56808U 23078AT  24185.90351930 -.00000150  00000-0 -16659-5 0  9997,2 56808  69.9991  36.9479 0003215 268.0378  92.0424 15.19261491 62104,6886.208,94.783,510.287,505.859,0.0
56808.0,STARLINK-6042,PAYLOAD,2024-07-04 15:03:58,15.19260908,0.0003203,69.9991,35.0614,268.061,92.0193,7.6897e-06,4.8e-07,0.0,0 STARLINK-6042,1 56808U 23078AT  24186.62776494  .00000048  00000-0  76897-5 0  9997,2 56808  69.9991  35.0614 0003203 268.0610  92.0193 15.19260908 62218,6886.21,94.783,510.281,505.869,0.0
